NORAD_CAT_ID,OBJECT_NAME,OBJECT_TYPE,EPOCH,MEAN_MOTION,ECCENTRICITY,INCLINATION,RA_OF_ASC_NODE,ARG_OF_PERICENTER,MEAN_ANOMALY,BSTAR,MEAN_MOTION_DOT,MEAN_MOTION_DDOT,TLE_LINE0,TLE_LINE1,TLE_LINE2,SEMIMAJOR_AXIS,PERIOD,APOGEE,PERIGEE,DECAYED
53728.0,STARLINK-4640,PAYLOAD,2023-05-31 08:16:54,15.08843255,0.0001145,53.2162,123.1528,86.3424,273.7699,3.334e-05,2.43e-06,0.0,0 STARLINK-4640,1 53728U 22107AE  23151.34507899  .00000243  00000-0  33340-4 0  9990,2 53728  53.2162 123.1528 0001145  86.3424 273.7699 15.08843255 40970,6917.87,95.437,540.528,538.943,0.0
53728.0,STARLINK-4640,PAYLOAD,2023-05-31 14:38:27,15.08837676,0.0001085,53.2158,121.9628,82.5026,277.6089,1.2402e-05,-9e-07,0.0,0 STARLINK-4640,1 53728U 22107AE  23151.61004320 -.00000090  00000-0  12402-4 0  9998,2 53728  53.2158 121.9628 0001085  82.5026 277.6089 15.08837676 41013,6917.887,95.438,540.503,539.002,0.0
53728.0,STARLINK-4640,PAYLOAD,2023-06-01 04:56:56,15.08837954,0.0001139,53.2158,119.2875,86.0041,274.1081,3.138e-05,2.12e-06,0.0,0 STARLINK-4640,1 53728U 22107AE  23152.20620396  .00000212  00000-0  31380-4 0  9992,2 53728  53.2158 119.2875 0001139  86.0041 274.1081 15.08837954 41702,6917.887,95.438,540.54,538.964,0.0
53728.0,STARLINK-4640,PAYLOAD,2023-06-02 03:12:20,15.08834361,0.0001152,53.2155,115.125,92.8973,267.2151,-1.8604e-05,-5.84e-06,0.0,0 STARLINK-4640,1 53728U 22107AE  23153.13357151 -.00000584  00000-0 -18604-4 0  9999,2 53728  53.2155 115.1250 0001152  92.8973 267.2151 15.08834361 41244,6917.898,95.438,540.56,538.966,0.0
53728.0,STARLINK-4640,PAYLOAD,2023-06-02 06:23:03,15.08875497,0.0001322,53.2164,114.5299,87.5259,272.5885,0.00031482,4.731e-05,0.0,0 STARLINK-4640,1 53728U 22107AE  23153.26601539  .00004731  00000-0  31482-3 0  9999,2 53728  53.2164 114.5299 0001322  87.5259 272.5885 15.08875497 41267,6917.772,95.435,540.551,538.722,0.0
53728.0,STARLINK-4640,PAYLOAD,2023-06-03 03:03:07,15.08835963,0.0001332,53.2161,110.6659,94.6093,265.5051,3.4205e-05,2.56e-06,0.0,0 STARLINK-4640,1 53728U 22107AE  23154.12716942  .00000256  00000-0  34205-4 0  9995,2 53728  53.2161 110.6659 0001332  94.6093 265.5051 15.08835963 41392,6917.893,95.438,540.679,538.836,0.0
53728.0,STARLINK-4640,PAYLOAD,2023-06-03 04:38:30,15.08835116,0.0001388,53.216,110.3683,108.0823,252.032,2.2033e-05,6.3e-07,0.0,0 STARLINK-4640,1 53728U 22107AE  23154.19340993  .00000063  00000-0  22033-4 0  9993,2 53728  53.2160 110.3683 0001388 108.0823 252.0320 15.08835116 42006,6917.895,95.438,540.721,538.8,0.0
53728.0,STARLINK-4640,PAYLOAD,2023-06-03 20:32:22,15.08834403,0.0001187,53.2161,107.3926,91.0872,269.0256,4.5753e-05,4.4e-06,0.0,0 STARLINK-4640,1 53728U 22107AE  23154.85581196  .00000440  00000-0  45753-4 0  9991,2 53728  53.2161 107.3926 0001187  91.0872 269.0256 15.08834403 42100,6917.897,95.438,540.584,538.941,0.0
53728.0,STARLINK-4640,PAYLOAD,2023-06-04 04:29:17,15.08838987,0.0001279,53.2162,105.9066,94.8558,265.2581,7.5873e-05,9.2e-06,0.0,0 STARLINK-4640,1 53728U 22107AE  23155.18700856  .00000920  00000-0  75873-4 0  9993,2 53728  53.2162 105.9066 0001279  94.8558 265.2581 15.08838987 41552,6917.883,95.438,540.633,538.864,0.0
53728.0,STARLINK-4640,PAYLOAD,2023-06-04 14:01:36,15.08851361,0.0001357,53.2157,104.1213,90.3991,269.7157,-0.00015811,-2.804e-05,0.0,0 STARLINK-4640,1 53728U 22107AE  23155.58444695 -.00002804  00000-0 -15811-3 0  9993,2 53728  53.2157 104.1213 0001357  90.3991 269.7157 15.08851361 42213,6917.846,95.437,540.649,538.772,0.0
53728.0,STARLINK-4640,PAYLOAD,2023-06-05 05:55:27,15.0883694,0.0001447,53.2152,101.1475,97.0912,263.0245,8.9452e-05,1.136e-05,0.0,0 STARLINK-4640,1 53728U 22107AE  23156.24684937  .00001136  00000-0  89452-4 0  9990,2 53728  53.2152 101.1475 0001447  97.0912 263.0245 15.08836940 41717,6917.89,95.438,540.756,538.754,0.0
53728.0,STARLINK-4640,PAYLOAD,2023-06-05 13:52:23,15.08835404,0.0001485,53.216,99.6594,109.7932,250.3221,4.6735e-05,4.56e-06,0.0,0 STARLINK-4640,1 53728U 22107AE  23156.57805179  .00000456  00000-0  46735-4 0  9990,2 53728  53.2160  99.6594 0001485 109.7932 250.3221 15.08835404 42363,6917.894,95.438,540.787,538.732,0.0
53728.0,STARLINK-4640,PAYLOAD,2023-06-05 20:13:56,15.08838466,0.0001671,53.2161,98.4697,112.3163,247.8006,1.1655e-05,-1.03e-06,0.0,0 STARLINK-4640,1 53728U 22107AE  23156.84301185 -.00000103  00000-0  11655-4 0  9991,2 53728  53.2161  98.4697 0001671 112.3163 247.8006 15.08838466 42406,6917.885,95.438,540.906,538.594,0.0
53728.0,STARLINK-4640,PAYLOAD,2023-06-06 05:46:14,15.08843316,0.0001561,53.2161,96.6856,105.3581,254.7584,3.1948e-06,-2.37e-06,0.0,0 STARLINK-4640,1 53728U 22107AE  23157.24044945 -.00000237  00000-0  31948-5 0  9990,2 53728  53.2161  96.6856 0001561 105.3581 254.7584 15.08843316 42461,6917.87,95.437,540.815,538.655,0.0
53728.0,STARLINK-4640,PAYLOAD,2023-06-06 23:15:29,15.08838175,0.0001532,53.2161,93.4153,99.8774,260.2391,3.1388e-05,2.12e-06,0.0,0 STARLINK-4640,1 53728U 22107AE  23157.96909252  .00000212  00000-0  31388-4 0  9999,2 53728  53.2161  93.4153 0001532  99.8774 260.2391 15.08838175 41975,6917.886,95.438,540.811,538.691,0.0
53728.0,STARLINK-4640,PAYLOAD,2023-06-07 02:26:15,15.08842092,0.000149,53.2166,92.8199,100.002,260.114,3.9883e-05,3.47e-06,0.0,0 STARLINK-4640,1 53728U 22107AE  23158.10156971  .00000347  00000-0  39883-4 0  9995,2 53728  53.2166  92.8199 0001490 100.0020 260.1140 15.08842092 42598,6917.874,95.437,540.77,538.708,0.0
53728.0,STARLINK-4640,PAYLOAD,2023-06-08 02:17:03,15.08833419,0.0001364,53.2159,88.363,87.2376,272.8773,1.8505e-05,7e-08,0.0,0 STARLINK-4640,1 53728U 22107AE  23159.09517875  .00000007  00000-0  18505-4 0  9999,2 53728  53.2159  88.3630 0001364  87.2376 272.8773 15.08833419 42146,6917.901,95.438,540.709,538.822,0.0
53728.0,STARLINK-4640,PAYLOAD,2023-06-08 22:57:03,15.08845862,0.0001284,53.216,84.4974,88.8629,271.251,-1.5188e-05,-5.3e-06,0.0,0 STARLINK-4640,1 53728U 22107AE  23159.95629437 -.00000530  00000-0 -15188-4 0  9999,2 53728  53.2160  84.4974 0001284  88.8629 271.2510 15.08845862 42276,6917.862,95.437,540.616,538.839,0.0
53728.0,STARLINK-4640,PAYLOAD,2023-06-09 03:43:13,15.08818495,0.0001429,53.2162,83.6047,93.8688,266.2467,0.00045531,6.962e-05,0.0,0 STARLINK-4640,1 53728U 22107AE  23160.15501505  .00006962  00000-0  45531-3 0  9995,2 53728  53.2162  83.6047 0001429  93.8688 266.2467 15.08818495 42303,6917.946,95.439,540.8,538.823,0.0
53728.0,STARLINK-4640,PAYLOAD,2023-06-09 11:40:09,15.08836444,0.0001354,53.2164,82.1156,81.4722,278.6424,4.6714e-05,4.56e-06,0.0,0 STARLINK-4640,1 53728U 22107AE  23160.48621739  .00000456  00000-0  46714-4 0  9990,2 53728  53.2164  82.1156 0001354  81.4722 278.6424 15.08836444 42954,6917.891,95.438,540.693,538.82,0.0
53728.0,STARLINK-4640,PAYLOAD,2023-06-10 11:30:56,15.08837197,0.0001342,53.2172,77.658,84.3725,275.7421,5.9027e-05,6.52e-06,0.0,0 STARLINK-4640,1 53728U 22107AE  23161.47982074  .00000652  00000-0  59027-4 0  9991,2 53728  53.2172  77.6580 0001342  84.3725 275.7421 15.08837197 43104,6917.889,95.438,540.682,538.826,0.0
53728.0,STARLINK-4640,PAYLOAD,2023-06-10 19:27:52,15.08842513,0.0001302,53.2177,76.1706,85.1276,274.9865,3.0902e-06,-2.39e-06,0.0,0 STARLINK-4640,1 53728U 22107AE  23161.81101966 -.00000239  00000-0  30902-5 0  9996,2 53728  53.2177  76.1706 0001302  85.1276 274.9865 15.08842513 42558,6917.873,95.437,540.638,538.837,0.0
53728.0,STARLINK-4640,PAYLOAD,2023-06-11 11:21:43,15.08840979,0.0001148,53.2169,73.1958,109.2949,250.8167,-2.219e-05,-6.41e-06,0.0,0 STARLINK-4640,1 53728U 22107AE  23162.47341902 -.00000641  00000-0 -22190-4 0  9992,2 53728  53.2169  73.1958 0001148 109.2949 250.8167 15.08840979 43258,6917.877,95.437,540.537,538.948,0.0
53728.0,STARLINK-4640,PAYLOAD,2023-06-11 17:43:16,15.08832478,0.0001064,53.2164,72.0061,80.0262,280.085,8.1105e-05,1.003e-05,0.0,0 STARLINK-4640,1 53728U 22107AE  23162.73838255  .00001003  00000-0  81105-4 0  9995,2 53728  53.2164  72.0061 0001064  80.0262 280.0850 15.08832478 43290,6917.903,95.438,540.504,539.032,0.0
53728.0,STARLINK-4640,PAYLOAD,2023-06-12 03:15:34,15.08841747,0.0001082,53.2166,70.2228,80.6586,279.4528,5.4367e-05,5.78e-06,0.0,0 STARLINK-4640,1 53728U 22107AE  23163.13581829  .00000578  00000-0  54367-4 0  9998,2 53728  53.2166  70.2228 0001082  80.6586 279.4528 15.08841747 42755,6917.875,95.437,540.489,538.992,0.0
53728.0,STARLINK-4640,PAYLOAD,2023-06-12 11:12:30,15.08837529,9.85e-05,53.2163,68.7356,91.0897,269.0208,4.1973e-05,3.8e-06,0.0,0 STARLINK-4640,1 53728U 22107AE  23163.46702083  .00000380  00000-0  41973-4 0  9991,2 53728  53.2163  68.7356 0000985  91.0897 269.0208 15.08837529 43404,6917.888,95.438,540.434,539.072,0.0
53728.0,STARLINK-4640,PAYLOAD,2023-06-12 14:23:17,15.08835824,0.0001258,53.2166,68.1403,86.7572,273.3564,5.4974e-06,-2e-06,0.0,0 STARLINK-4640,1 53728U 22107AE  23163.59950395 -.00000200  00000-0  54974-5 0  9994,2 53728  53.2166  68.1403 0001258  86.7572 273.3564 15.08835824 42823,6917.893,95.438,540.628,538.888,0.0
53728.0,STARLINK-4640,PAYLOAD,2023-06-12 23:55:35,15.0883468,0.0001016,53.2168,66.3554,90.5198,269.5911,7.1554e-05,8.51e-06,0.0,0 STARLINK-4640,1 53728U 22107AE  23163.99694290  .00000851  00000-0  71554-4 0  9990,2 53728  53.2168  66.3554 0001016  90.5198 269.5911 15.08834680 43486,6917.897,95.438,540.465,539.059,0.0
53728.0,STARLINK-4640,PAYLOAD,2023-06-13 20:35:36,15.08841463,0.0001113,53.217,62.492,82.2682,277.8436,8.1767e-05,1.014e-05,0.0,0 STARLINK-4640,1 53728U 22107AE  23164.85805804  .00001014  00000-0  81767-4 0  9990,2 53728  53.2170  62.4920 0001113  82.2682 277.8436 15.08841463 43613,6917.876,95.437,540.511,538.971,0.0
53728.0,STARLINK-4640,PAYLOAD,2023-06-14 02:57:08,15.0885124,0.0001124,53.2172,61.3012,87.6865,272.4256,0.00010258,1.346e-05,0.0,0 STARLINK-4640,1 53728U 22107AE  23165.12301047  .00001346  00000-0  10258-3 0  9995,2 53728  53.2172  61.3012 0001124  87.6865 272.4256 15.08851240 43052,6917.846,95.437,540.489,538.933,0.0
